Satellite: XW-2D
Catalog number: 40907
Epoch time: 17252.783022
Element set: 999
Inclination: 97.453500 deg
RA of node: 256.338000 deg
Eccentricity: 0.001283
Arg of perigee: 281.267700 deg
Mean anomaly: 78.711200 deg
Mean motion: 15.148016 rev/day
Decay rate: 3.656000e-05 rev/day^2
Epoch rev: 1090

Satellite: LILACSAT-2
Catalog number: 40908
Epoch time: 17252.601966
Element set: 999
Inclination: 97.464200 deg
RA of node: 255.854200 deg
Eccentricity: 0.001451
Arg of perigee: 280.653900 deg
Mean anomaly: 79.305700 deg
Mean motion: 15.132111 rev/day
Decay rate: 1.832000e-05 rev/day^2
Epoch rev: 1089

Satellite: XW-2F
Catalog number: 40910
Epoch time: 17252.536601
Element set: 999
Inclination: 97.455300 deg
RA of node: 256.916400 deg
Eccentricity: 0.001357
Arg of perigee: 279.017400 deg
Mean anomaly: 80.952300 deg
Mean motion: 15.157525 rev/day
Decay rate: 5.488000e-05 rev/day^2
Epoch rev: 1089

Satellite: XW-2B
Catalog number: 40911
Epoch time: 17252.725234
Element set: 999
Inclination: 97.457800 deg
RA of node: 256.699500 deg
Eccentricity: 0.001273
Arg of perigee: 281.961100 deg
Mean anomaly: 78.019400 deg
Mean motion: 15.147600 rev/day
Decay rate: 3.466000e-05 rev/day^2
Epoch rev: 1089

Satellite: DCBB
Catalog number: 40912
Epoch time: 17252.806671
Element set: 999
Inclination: 97.452500 deg
RA of node: 259.262300 deg
Eccentricity: 0.001352
Arg of perigee: 266.202500 deg
Mean anomaly: 179.284300 deg
Mean motion: 15.178801 rev/day
Decay rate: 5.749000e-05 rev/day^2
Epoch rev: 1091

Satellite: TW-1C
Catalog number: 40926
Epoch time: 17252.815330
Element set: 999
Inclination: 97.221300 deg
RA of node: 291.749200 deg
Eccentricity: 0.001058
Arg of perigee: 210.910000 deg
Mean anomaly: 236.942500 deg
Mean motion: 15.439984 rev/day
Decay rate: 2.615500e-04 rev/day^2
Epoch rev: 1099

Satellite: TW-1A
Catalog number: 40928
Epoch time: 17252.506050
Element set: 999
Inclination: 97.218700 deg
RA of node: 286.802900 deg
Eccentricity: 0.001077
Arg of perigee: 251.210600 deg
Mean anomaly: 244.918900 deg
Mean motion: 15.367050 rev/day
Decay rate: 1.092700e-04 rev/day^2
Epoch rev: 1096

Satellite: IO-86
Catalog number: 40931
Epoch time: 17252.069817
Element set: 999
Inclination: 6.000700 deg
RA of node: 354.588700 deg
Eccentricity: 0.001337
Arg of perigee: 348.023800 deg
Mean anomaly: 11.955800 deg
Mean motion: 14.765383 rev/day
Decay rate: -2.320000e-06 rev/day^2
Epoch rev: 1053

Satellite: GomX-3
Catalog number: 40949
Epoch time: 16292.183578
Element set: 999
Inclination: 51.605500 deg
RA of node: 106.769600 deg
Eccentricity: 0.000670
Arg of perigee: 286.134400 deg
Mean anomaly: 73.894400 deg
Mean motion: 16.380023 rev/day
Decay rate: 8.527750e-02 rev/day^2
Epoch rev: 5964

Satellite: LQSat
Catalog number: 40958
Epoch time: 17252.753992
Element set: 999
Inclination: 97.971800 deg
RA of node: 326.573600 deg
Eccentricity: 0.001901
Arg of perigee: 151.458600 deg
Mean anomaly: 208.767700 deg
Mean motion: 14.729822 rev/day
Decay rate: -2.440000e-06 rev/day^2
Epoch rev: 1035

Satellite: AO-85
Catalog number: 40967
Epoch time: 17251.403084
Element set: 84
Inclination: 64.776600 deg
RA of node: 326.444300 deg
Eccentricity: 0.017668
Arg of perigee: 47.359500 deg
Mean anomaly: 314.224800 deg
Mean motion: 14.754865 rev/day
Decay rate: 1.021000e-05 rev/day^2
Epoch rev: 120

Satellite: ATHENOXAT-1
Catalog number: 41168
Epoch time: 17252.704248
Element set: 999
Inclination: 14.987700 deg
RA of node: 271.894700 deg
Eccentricity: 0.001276
Arg of perigee: 106.324900 deg
Mean anomaly: 213.152000 deg
Mean motion: 15.118475 rev/day
Decay rate: 8.404000e-05 rev/day^2
Epoch rev: 9584

Satellite: ChubuSat-2
Catalog number: 41338
Epoch time: 17252.544439
Element set: 999
Inclination: 31.003600 deg
RA of node: 296.485900 deg
Eccentricity: 0.001387
Arg of perigee: 174.651600 deg
Mean anomaly: 185.426900 deg
Mean motion: 14.997977 rev/day
Decay rate: 1.326000e-05 rev/day^2
Epoch rev: 856

Satellite: ChubuSat-3
Catalog number: 41339
Epoch time: 17252.461201
Element set: 999
Inclination: 31.010700 deg
RA of node: 296.021500 deg
Eccentricity: 0.001362
Arg of perigee: 181.979500 deg
Mean anomaly: 178.081200 deg
Mean motion: 14.999978 rev/day
Decay rate: 1.464000e-05 rev/day^2
Epoch rev: 8563

Satellite: Horyu-4
Catalog number: 41340
Epoch time: 17252.463990
Element set: 999
Inclination: 31.005400 deg
RA of node: 292.920200 deg
Eccentricity: 0.001416
Arg of perigee: 189.770300 deg
Mean anomaly: 170.265900 deg
Mean motion: 15.006830 rev/day
Decay rate: 1.554000e-05 rev/day^2
Epoch rev: 8568

Satellite: OUFTI-1
Catalog number: 41458
Epoch time: 17252.843869
Element set: 999
Inclination: 98.177700 deg
RA of node: 295.259900 deg
Eccentricity: 0.017179
Arg of perigee: 7.369800 deg
Mean anomaly: 353.025400 deg
Mean motion: 15.035434 rev/day
Decay rate: 6.937000e-05 rev/day^2
Epoch rev: 7529

Satellite: e-st@r-II
Catalog number: 41459
Epoch time: 17252.608009
Element set: 999
Inclination: 98.175700 deg
RA of node: 294.935900 deg
Eccentricity: 0.017375
Arg of perigee: 8.299100 deg
Mean anomaly: 352.104000 deg
Mean motion: 15.033478 rev/day
Decay rate: 6.875000e-05 rev/day^2
Epoch rev: 752

Satellite: AAUSAT4
Catalog number: 41460
Epoch time: 17252.819038
Element set: 999
Inclination: 98.169800 deg
RA of node: 295.320000 deg
Eccentricity: 0.016612
Arg of perigee: 5.635400 deg
Mean anomaly: 354.666100 deg
Mean motion: 15.043730 rev/day
Decay rate: 8.795000e-05 rev/day^2
Epoch rev: 7531

Satellite: NODES 1
Catalog number: 41477
Epoch time: 17252.990199
Element set: 999
Inclination: 51.617100 deg
RA of node: 277.276500 deg
Eccentricity: 0.000622
Arg of perigee: 31.707900 deg
Mean anomaly: 328.457800 deg
Mean motion: 16.073700 rev/day
Decay rate: 7.366760e-03 rev/day^2
Epoch rev: 7556

Satellite: NODES 2
Catalog number: 41478
Epoch time: 17252.528522
Element set: 999
Inclination: 51.622100 deg
RA of node: 281.032800 deg
Eccentricity: 0.000663
Arg of perigee: 30.894600 deg
Mean anomaly: 329.245500 deg
Mean motion: 16.034520 rev/day
Decay rate: 5.691210e-03 rev/day^2
Epoch rev: 7547

Satellite: LO-87
Catalog number: 41557
Epoch time: 17252.800567
Element set: 999
Inclination: 97.458500 deg
RA of node: 332.310900 deg
Eccentricity: 0.001571
Arg of perigee: 71.512700 deg
Mean anomaly: 288.781800 deg
Mean motion: 15.273443 rev/day
Decay rate: 7.178000e-05 rev/day^2
Epoch rev: 7134

