XW-2D
1 40907U 15049J   17252.78302176  .00003656  00000-0  20011-3 0  9997
2 40907  97.4535 256.3380 0012834 281.2677  78.7112 15.14801563109047
LILACSAT-2
1 40908U 15049K   17252.60196587  .00001832  00000-0  10662-3 0  9991
2 40908 097.4642 255.8542 0014515 280.6539 079.3057 15.13211149108935
XW-2F
1 40910U 15049M   17252.53660065  .00005488  00000-0  29061-3 0  9997
2 40910  97.4553 256.9164 0013566 279.0174  80.9523 15.15752537108921
XW-2B
1 40911U 15049N   17252.72523434  .00003466  00000-0  19013-3 0  9997
2 40911  97.4578 256.6995 0012734 281.9611  78.0194 15.14759972108934
DCBB
1 40912U 15049P   17252.80667134  .00005749  00000-0  28643-3 0  9998
2 40912  97.4525 259.2623 0013525 266.2025 179.2843 15.17880134109123
TW-1C
1 40926U 15051B   17252.81532988  .00026155  00000-0  57350-3 0  9996
2 40926  97.2213 291.7492 0010581 210.9100 236.9425 15.43998409109978
TW-1A
1 40928U 15051D   17252.50605007  .00010927  00000-0  30635-3 0  9994
2 40928 097.2187 286.8029 0010769 251.2106 244.9189 15.36705017109646
IO-86
1 40931U 15052B   17252.06981750 -.00000232  00000-0 -12182-3 0  9999
2 40931 006.0007 354.5887 0013369 348.0238 011.9558 14.76538325105382
GomX-3
1 40949U 98067HA  16292.18357804  .08527750  12374-4  77882-3 0  9992
2 40949  51.6055 106.7696 0006699 286.1344  73.8944 16.38002265 59645
LQSat
1 40958U 15057A   17252.75399155 -.00000244  00000-0 -30203-4 0  9999
2 40958  97.9718 326.5736 0019015 151.4586 208.7677 14.72982238103565
AO-85
1 40967U 15058D   17251.40308421  .00001021  00000-0  13511-3 0 00846
2 40967 064.7766 326.4443 0176676 047.3595 314.2248 14.75486529012071
ATHENOXAT-1
1 41168U 15077C   17252.70424769  .00008404  00000-0  43757-3 0  9991
2 41168  14.9877 271.8947 0012756 106.3249 213.1520 15.11847538 95845
ChubuSat-2
1 41338U 16012B   17252.54443887  .00001326  00000-0  97758-4 0  9991
2 41338 031.0036 296.4859 0013874 174.6516 185.4269 14.99797708085661
ChubuSat-3
1 41339U 16012C   17252.46120071  .00001464  00000-0  10813-3 0  9999
2 41339  31.0107 296.0215 0013620 181.9795 178.0812 14.99997806 85632
Horyu-4
1 41340U 16012D   17252.46399019  .00001554  00000-0  11303-3 0  9996
2 41340  31.0054 292.9202 0014160 189.7703 170.2659 15.00682989 85685
OUFTI-1
1 41458U 16025C   17252.84386919  .00006937  00000-0  37106-3 0  9996
2 41458  98.1777 295.2599 0171786   7.3698 353.0254 15.03543436 75296
e-st at r-II
1 41459U 16025D   17252.60800901  .00006875  00000-0  36720-3 0  9995
2 41459 098.1757 294.9359 0173751 008.2991 352.1040 15.03347761075257
AAUSAT4
1 41460U 16025E   17252.81903756  .00008795  00000-0  46734-3 0  9991
2 41460  98.1698 295.3200 0166117   5.6354 354.6661 15.04372981 75311
NODES 1
1 41477U 98067HX  17252.99019914  .00736676  29090-3  90180-3 0  9991
2 41477  51.6171 277.2765 0006220  31.7079 328.4578 16.07369983 75561
NODES 2
1 41478U 98067HY  17252.52852155  .00569121  16141-3  88627-3 0  9998
2 41478  51.6221 281.0328 0006635  30.8946 329.2455 16.03452016 75478
LO-87
1 41557U 16033B   17252.80056699  .00007178  00000-0  26991-3 0  9998
2 41557  97.4585 332.3109 0015713  71.5127 288.7818 15.27344276 71341
